{
  "type": "FeatureCollection",
  "features": [
    {
      "type": "Feature",
      "properties": {
        "norad_id": 27954,
        "name": "GALAXY 13 (HORIZONS-1)",
        "group": "intelsat",
        "lat": -0.25891677007183994,
        "lon": -78.4895055496432,
        "alt_km": 35779.58045009007,
        "timestamp": "2025-12-08T23:34:03.637207+00:00",
        "meta_object_name": "GALAXY 13 (HORIZONS-1)",
        "meta_object_id": "2003-044A",
        "meta_epoch": "2025-12-08T14:36:09.006912",
        "meta_mean_motion": 1.00269697,
        "meta_eccentricity": 0.00020295,
        "meta_inclination": 0.9248,
        "meta_ra_of_asc_node": 86.5245,
        "meta_arg_of_pericenter": 160.3438,
        "meta_mean_anomaly": 259.7902,
        "meta_ephemeris_type": 0,
        "meta_classification_type": "U",
        "meta_norad_cat_id": 27954,
        "meta_element_set_no": 999,
        "meta_rev_at_epoch": 4466,
        "meta_bstar": 0,
        "meta_mean_motion_dot": 1.35e-06,
        "meta_mean_motion_ddot": 0,
        "tle_line1": "1 27954U 03044A   25342.60843758  .00000135  00000+0  00000+0 0  9992",
        "tle_line2": "2 27954   0.9248  86.5245 0002029 160.3438 259.7902  1.00269697 44664"
      },
      "geometry": {
        "type": "Point",
        "coordinates": [
          -78.4895055496432,
          -0.25891677007183994
        ]
      }
    },
    {
      "type": "Feature",
      "properties": {
        "norad_id": 28358,
        "name": "INTELSAT 10-02",
        "group": "intelsat",
        "lat": 0.017181183661313996,
        "lon": 70.52524042438473,
        "alt_km": 35789.80642168996,
        "timestamp": "2025-12-08T23:34:03.637219+00:00",
        "meta_object_name": "INTELSAT 10-02",
        "meta_object_id": "2004-022A",
        "meta_epoch": "2025-12-08T13:35:59.768736",
        "meta_mean_motion": 1.0027242,
        "meta_eccentricity": 0.00012205,
        "meta_inclination": 0.0328,
        "meta_ra_of_asc_node": 73.0267,
        "meta_arg_of_pericenter": 218.2082,
        "meta_mean_anomaly": 349.3587,
        "meta_ephemeris_type": 0,
        "meta_classification_type": "U",
        "meta_norad_cat_id": 28358,
        "meta_element_set_no": 999,
        "meta_rev_at_epoch": 7864,
        "meta_bstar": 0,
        "meta_mean_motion_dot": -8e-08,
        "meta_mean_motion_ddot": 0,
        "tle_line1": "1 28358U 04022A   25342.56666399 -.00000008  00000+0  00000+0 0  9997",
        "tle_line2": "2 28358   0.0328  73.0267 0001220 218.2082 349.3587  1.00272420 78646"
      },
      "geometry": {
        "type": "Point",
        "coordinates": [
          70.52524042438473,
          0.017181183661313996
        ]
      }
    },
    {
      "type": "Feature",
      "properties": {
        "norad_id": 28626,
        "name": "XM-3 (RHYTHM)",
        "group": "intelsat",
        "lat": 0.12310869431161427,
        "lon": -156.35781624311,
        "alt_km": 36163.91549454352,
        "timestamp": "2025-12-08T23:34:03.637231+00:00",
        "meta_object_name": "XM-3 (RHYTHM)",
        "meta_object_id": "2005-008A",
        "meta_epoch": "2025-12-08T14:21:38.470752",
        "meta_mean_motion": 0.98953996,
        "meta_eccentricity": 0.00013156,
        "meta_inclination": 0.164,
        "meta_ra_of_asc_node": 81.1442,
        "meta_arg_of_pericenter": 262.6864,
        "meta_mean_anomaly": 83.1621,
        "meta_ephemeris_type": 0,
        "meta_classification_type": "U",
        "meta_norad_cat_id": 28626,
        "meta_element_set_no": 999,
        "meta_rev_at_epoch": 4070,
        "meta_bstar": 0,
        "meta_mean_motion_dot": -2.54e-06,
        "meta_mean_motion_ddot": 0,
        "tle_line1": "1 28626U 05008A   25342.59836193 -.00000254  00000+0  00000+0 0  9997",
        "tle_line2": "2 28626   0.1640  81.1442 0001315 262.6864  83.1621  0.98953996 40701"
      },
      "geometry": {
        "type": "Point",
        "coordinates": [
          -156.35781624311,
          0.12310869431161427
        ]
      }
    },
    {
      "type": "Feature",
      "properties": {
        "norad_id": 28659,
        "name": "DIRECTV 8",
        "group": "intelsat",
        "lat": -0.024158242006999602,
        "lon": -47.52634400336068,
        "alt_km": 35777.48116959462,
        "timestamp": "2025-12-08T23:34:03.637243+00:00",
        "meta_object_name": "DIRECTV 8",
        "meta_object_id": "2005-019A",
        "meta_epoch": "2025-12-08T13:58:20.758080",
        "meta_mean_motion": 1.00271702,
        "meta_eccentricity": 0.00032075,
        "meta_inclination": 0.017,
        "meta_ra_of_asc_node": 357.8351,
        "meta_arg_of_pericenter": 263.9766,
        "meta_mean_anomaly": 266.3148,
        "meta_ephemeris_type": 0,
        "meta_classification_type": "U",
        "meta_norad_cat_id": 28659,
        "meta_element_set_no": 999,
        "meta_rev_at_epoch": 7516,
        "meta_bstar": 0,
        "meta_mean_motion_dot": 3e-08,
        "meta_mean_motion_ddot": 0,
        "tle_line1": "1 28659U 05019A   25342.58218470  .00000003  00000+0  00000+0 0  9997",
        "tle_line2": "2 28659   0.0170 357.8351 0003207 263.9766 266.3148  1.00271702 75162"
      },
      "geometry": {
        "type": "Point",
        "coordinates": [
          -47.52634400336068,
          -0.024158242006999602
        ]
      }
    },
    {
      "type": "Feature",
      "properties": {
        "norad_id": 28702,
        "name": "GALAXY 28 (G-28)",
        "group": "intelsat",
        "lat": -2.780238009424882,
        "lon": -17.168093601255155,
        "alt_km": 35785.295409044185,
        "timestamp": "2025-12-08T23:34:03.637255+00:00",
        "meta_object_name": "GALAXY 28 (G-28)",
        "meta_object_id": "2005-022A",
        "meta_epoch": "2025-12-08T12:28:32.519712",
        "meta_mean_motion": 1.00271307,
        "meta_eccentricity": 0.00026672,
        "meta_inclination": 2.8078,
        "meta_ra_of_asc_node": 81.331,
        "meta_arg_of_pericenter": 178.1608,
        "meta_mean_anomaly": 276.4849,
        "meta_ephemeris_type": 0,
        "meta_classification_type": "U",
        "meta_norad_cat_id": 28702,
        "meta_element_set_no": 999,
        "meta_rev_at_epoch": 5006,
        "meta_bstar": 0,
        "meta_mean_motion_dot": -1.86e-06,
        "meta_mean_motion_ddot": 0,
        "tle_line1": "1 28702U 05022A   25342.51982083 -.00000186  00000+0  00000+0 0  9994",
        "tle_line2": "2 28702   2.8078  81.3310 0002667 178.1608 276.4849  1.00271307 50066"
      },
      "geometry": {
        "type": "Point",
        "coordinates": [
          -17.168093601255155,
          -2.780238009424882
        ]
      }
    },
    {
      "type": "Feature",
      "properties": {
        "norad_id": 29236,
        "name": "GALAXY 16 (G-16)",
        "group": "intelsat",
        "lat": -0.0002631557684055265,
        "lon": -27.487558498389355,
        "alt_km": 35783.981406167775,
        "timestamp": "2025-12-08T23:34:03.637267+00:00",
        "meta_object_name": "GALAXY 16 (G-16)",
        "meta_object_id": "2006-023A",
        "meta_epoch": "2025-12-08T12:22:13.984896",
        "meta_mean_motion": 1.00272712,
        "meta_eccentricity": 0.00029104,
        "meta_inclination": 0.0097,
        "meta_ra_of_asc_node": 98.0987,
        "meta_arg_of_pericenter": 152.9659,
        "meta_mean_anomaly": 273.0004,
        "meta_ephemeris_type": 0,
        "meta_classification_type": "U",
        "meta_norad_cat_id": 29236,
        "meta_element_set_no": 999,
        "meta_rev_at_epoch": 7106,
        "meta_bstar": 0,
        "meta_mean_motion_dot": -1.25e-06,
        "meta_mean_motion_ddot": 0,
        "tle_line1": "1 29236U 06023A   25342.51543964 -.00000125  00000+0  00000+0 0  9993",
        "tle_line2": "2 29236   0.0097  98.0987 0002910 152.9659 273.0004  1.00272712 71062"
      },
      "geometry": {
        "type": "Point",
        "coordinates": [
          -27.487558498389355,
          -0.0002631557684055265
        ]
      }
    },
    {
      "type": "Feature",
      "properties": {
        "norad_id": 29494,
        "name": "DIRECTV 9S",
        "group": "intelsat",
        "lat": -1.7836570417830901,
        "lon": -29.69685571607765,
        "alt_km": 35782.05830312457,
        "timestamp": "2025-12-08T23:34:03.637279+00:00",
        "meta_object_name": "DIRECTV 9S",
        "meta_object_id": "2006-043A",
        "meta_epoch": "2025-12-08T12:21:41.000832",
        "meta_mean_motion": 1.00270638,
        "meta_eccentricity": 0.0003201,
        "meta_inclination": 1.9291,
        "meta_ra_of_asc_node": 83.2497,
        "meta_arg_of_pericenter": 176.8232,
        "meta_mean_anomaly": 261.6554,
        "meta_ephemeris_type": 0,
        "meta_classification_type": "U",
        "meta_norad_cat_id": 29494,
        "meta_element_set_no": 999,
        "meta_rev_at_epoch": 4947,
        "meta_bstar": 0,
        "meta_mean_motion_dot": -1.11e-06,
        "meta_mean_motion_ddot": 0,
        "tle_line1": "1 29494U 06043A   25342.51505788 -.00000111  00000+0  00000+0 0  9998",
        "tle_line2": "2 29494   1.9291  83.2497 0003201 176.8232 261.6554  1.00270638 49470"
      },
      "geometry": {
        "type": "Point",
        "coordinates": [
          -29.69685571607765,
          -1.7836570417830901
        ]
      }
    }
  ]
}